GLOBALSTAR M001         
1 25162U 98008A   24151.89482646 -.00000101  00000+0 -33231-4 0  9990
2 25162  52.0059   5.8935 0001909 136.6946 326.4103 12.38184592196461
GLOBALSTAR M004         
1 25163U 98008B   24151.42149035 -.00000075  00000+0  15839-3 0  9994
2 25163  51.9972 141.8477 0002846 158.3496   6.3668 12.63360932213303
GLOBALSTAR M002         
1 25164U 98008C   24152.06929210 -.00000113  00000+0 -71331-3 0  9990
2 25164  51.9996 118.2933 0000979 161.1375 198.9482 11.61502844139731
GLOBALSTAR M003         
1 25165U 98008D   24152.40126633  .00000060  00000+0  15968-2 0  9999
2 25165  51.9841 145.9213 0007931 245.5005 263.1102 12.12006614187010
GLOBALSTAR M014         
1 25306U 98023A   24151.87586990 -.00000061  00000+0  30526-3 0  9999
2 25306  51.9865  50.0397 0001463  33.2964  44.4353 11.65468207146595
GLOBALSTAR M006         
1 25307U 98023B   24152.24734591 -.00000019  00000+0  11502-2 0  9999
2 25307  51.9941  87.2985 0003566 130.7822  17.8510 11.58164628172688
GLOBALSTAR M015         
1 25308U 98023C   24152.08744549 -.00000056  00000+0  40865-3 0  9992
2 25308  51.9779 168.6568 0012431 117.8249 275.4121 11.48852782150533
GLOBALSTAR M008         
1 25309U 98023D   24152.22154684 -.00000112  00000+0 -12626-3 0  9992
2 25309  51.9962 225.4466 0002740  97.8020 279.0658 12.36043426190920
